[{"OBJECT_NAME":"STARLINK-35082","OBJECT_ID":"2025-191P","EPOCH":"2026-03-09T14:49:26.748480","MEAN_MOTION":15.05643938,"ECCENTRICITY":0.0002353,"INCLINATION":97.6018,"RA_OF_ASC_NODE":301.5343,"ARG_OF_PERICENTER":80.709,"MEAN_ANOMALY":279.4403,"EPHEMERIS_TYPE":0,"CLASSIFICATION_TYPE":"U","NORAD_CAT_ID":65392,"ELEMENT_SET_NO":999,"REV_AT_EPOCH":3026,"BSTAR":6.7413e-5,"MEAN_MOTION_DOT":9.12e-6,"MEAN_MOTION_DDOT":0},{"OBJECT_NAME":"DMSP 5D-2 F13 DEB","OBJECT_ID":"1995-015HF","EPOCH":"2026-03-08T15:33:20.356128","MEAN_MOTION":15.01113693,"ECCENTRICITY":0.00168904,"INCLINATION":98.8624,"RA_OF_ASC_NODE":112.9575,"ARG_OF_PERICENTER":188.2899,"MEAN_ANOMALY":171.8045,"EPHEMERIS_TYPE":0,"CLASSIFICATION_TYPE":"U","NORAD_CAT_ID":42289,"ELEMENT_SET_NO":999,"REV_AT_EPOCH":56056,"BSTAR":0.014483506,"MEAN_MOTION_DOT":0.00190863,"MEAN_MOTION_DDOT":0}]
